{
  "norad_id": 57912,
  "name": "STARLINK-30477",
  "history": [
    {
      "epoch": "2026-05-03T09:14:40.422912Z",
      "apogee_km": 484.80124644873376,
      "perigee_km": 481.3581506850587,
      "latitude_deg": 3.1715590409820816e-05,
      "longitude_deg": 1.7348685723619401,
      "height_km": 483.2169848134546,
      "semi_major_axis_km": 6861.2166985668955,
      "eccentricity": 0.00025091,
      "inclination_deg": 43.0043,
      "raan_deg": 1.6929,
      "arg_perigee_deg": 257.9513,
      "mean_anomaly_deg": 102.1058,
      "mean_motion_rev_day": 15.2756978
    },
    {
      "epoch": "2026-05-04T08:47:00.261600Z",
      "apogee_km": 484.7175306623312,
      "perigee_km": 481.2999939581241,
      "latitude_deg": 4.204236718150201e-06,
      "longitude_deg": 2.1457689053523223,
      "height_km": 483.09042116804466,
      "semi_major_axis_km": 6861.145762310227,
      "eccentricity": 0.00024905,
      "inclination_deg": 43.0091,
      "raan_deg": 356.1532,
      "arg_perigee_deg": 259.7797,
      "mean_anomaly_deg": 100.2774,
      "mean_motion_rev_day": 15.2759347
    },
    {
      "epoch": "2026-05-05T16:10:08.443776Z",
      "apogee_km": 483.98411878819115,
      "perigee_km": 482.0671099537358,
      "latitude_deg": 2.284184492705623e-05,
      "longitude_deg": -117.31326953169435,
      "height_km": 483.08290035392827,
      "semi_major_axis_km": 6861.162614370963,
      "eccentricity": 0.0001397,
      "inclination_deg": 43.0079,
      "raan_deg": 348.7672,
      "arg_perigee_deg": 253.0275,
      "mean_anomaly_deg": 107.0424,
      "mean_motion_rev_day": 15.27587842
    },
    {
      "epoch": "2026-05-06T15:42:30.223008Z",
      "apogee_km": 484.1833755149082,
      "perigee_km": 482.00013252537883,
      "latitude_deg": 1.20578821054641e-05,
      "longitude_deg": -116.9086596971969,
      "height_km": 483.078792299499,
      "semi_major_axis_km": 6861.228754020143,
      "eccentricity": 0.0001591,
      "inclination_deg": 43.0078,
      "raan_deg": 343.2293,
      "arg_perigee_deg": 258.9426,
      "mean_anomaly_deg": 101.1247,
      "mean_motion_rev_day": 15.27565754
    },
    {
      "epoch": "2026-05-07T15:14:51.304992Z",
      "apogee_km": 484.3682094930555,
      "perigee_km": 481.7842765857258,
      "latitude_deg": -6.144758037467866e-05,
      "longitude_deg": -116.49800333615538,
      "height_km": 482.7325785440959,
      "semi_major_axis_km": 6861.21324303939,
      "eccentricity": 0.0001883,
      "inclination_deg": 43.0089,
      "raan_deg": 337.6946,
      "arg_perigee_deg": 275.4078,
      "mean_anomaly_deg": 84.6558,
      "mean_motion_rev_day": 15.27570934
    },
    {
      "epoch": "2026-05-08T13:13:01.331040Z",
      "apogee_km": 484.0040841396558,
      "perigee_km": 481.999259419762,
      "latitude_deg": -3.322373613545306e-05,
      "longitude_deg": -92.1148045826753,
      "height_km": 482.7290883773584,
      "semi_major_axis_km": 6861.138671779709,
      "eccentricity": 0.0001461,
      "inclination_deg": 43.0064,
      "raan_deg": 332.5218,
      "arg_perigee_deg": 272.8623,
      "mean_anomaly_deg": 87.2061,
      "mean_motion_rev_day": 15.27595838
    },
    {
      "epoch": "2026-05-09T14:19:32.121984Z",
      "apogee_km": 484.0152028944276,
      "perigee_km": 482.07897674428114,
      "latitude_deg": 1.1736520153121632e-05,
      "longitude_deg": -115.68352631881332,
      "height_km": 482.96878295995776,
      "semi_major_axis_km": 6861.184089819354,
      "eccentricity": 0.0001411,
      "inclination_deg": 43.0053,
      "raan_deg": 326.6125,
      "arg_perigee_deg": 261.4204,
      "mean_anomaly_deg": 98.6488,
      "mean_motion_rev_day": 15.2758067
    },
    {
      "epoch": "2026-05-10T13:51:53.790624Z",
      "apogee_km": 484.30933168704087,
      "perigee_km": 481.9024076883534,
      "latitude_deg": 1.7993351874103692e-05,
      "longitude_deg": -115.27643387975182,
      "height_km": 482.8760916399103,
      "semi_major_axis_km": 6861.242869687697,
      "eccentricity": 0.0001754,
      "inclination_deg": 43.0088,
      "raan_deg": 321.0766,
      "arg_perigee_deg": 270.3688,
      "mean_anomaly_deg": 89.6963,
      "mean_motion_rev_day": 15.2756104
    },
    {
      "epoch": "2026-05-11T13:24:13.526496Z",
      "apogee_km": 483.82655111326676,
      "perigee_km": 482.2001840301382,
      "latitude_deg": -1.0684467874581883e-06,
      "longitude_deg": -114.86729229646343,
      "height_km": 482.8948218037098,
      "semi_major_axis_km": 6861.150367571702,
      "eccentricity": 0.00011852,
      "inclination_deg": 43.0054,
      "raan_deg": 315.5347,
      "arg_perigee_deg": 262.6269,
      "mean_anomaly_deg": 97.4448,
      "mean_motion_rev_day": 15.27591932
    },
    {
      "epoch": "2026-05-12T19:13:12.573408Z",
      "apogee_km": 484.0924795906776,
      "perigee_km": 482.028631365989,
      "latitude_deg": 2.414628296090396e-06,
      "longitude_deg": 149.64686686156878,
      "height_km": 482.9242243758443,
      "semi_major_axis_km": 6861.197555478333,
      "eccentricity": 0.0001504,
      "inclination_deg": 43.0061,
      "raan_deg": 308.5194,
      "arg_perigee_deg": 265.2073,
      "mean_anomaly_deg": 94.8607,
      "mean_motion_rev_day": 15.27576173
    }
  ]
}